1 00001U 00000A   24300.00000000  .00000000  00000-0  00000-0 0  0001
2 00001 000.0000 000.0000 0000000 000.0000 000.0000 16.30007100 00001
